STARLINK-36635          
1 67601U 26018N   26039.83335647 -.01723331  00000+0 -79905-2 0  9999
2 67601  97.2788 104.1534 0001584  86.0958 183.1381 15.86336851  2716
STARLINK-36631          
1 67602U 26018P   26039.83335647 -.01707604  00000+0 -77261-2 0  9998
2 67602  97.2783 104.1580 0001483  86.2810 193.8284 15.86807040  2702
STARLINK-36626          
1 67603U 26018Q   26039.83335647 -.01702719  00000+0 -74696-2 0  9990
2 67603  97.2776 104.1636 0001490  86.9939 207.3356 15.87422864  2703
STARLINK-36605          
1 67604U 26018R   26039.83335647 -.01710416  00000+0 -75667-2 0  9993
2 67604  97.2775 104.1616 0001555  82.1639 208.3857 15.87266626  2707
STARLINK-36281          
1 67605U 26018S   26039.83335647 -.01710535  00000+0 -76469-2 0  9997
2 67605  97.2777 104.1595 0001433  93.1589 192.5737 15.87056823  2759
STARLINK-35843          
1 67606U 26018T   26039.83335647 -.01710459  00000+0 -74355-2 0  9995
2 67606  97.2771 104.1649 0001548  78.7067 220.0364 15.87619762  2762
STARLINK-36351          
1 67607U 26018U   26039.83335647 -.01698965  00000+0 -73188-2 0  9996
2 67607  97.2772 104.1670 0001520  87.8634 214.7733 15.87781737  2761
STARLINK-36411          
1 67608U 26018V   26039.83335647 -.01702597  00000+0 -72398-2 0  9996
2 67608  97.2768 104.1693 0001433  86.2569 222.2968 15.88049880  2755
STARLINK-36312          
1 67609U 26018W   26039.83335647 -.01699217  00000+0 -71429-2 0  9995
2 67609  97.2768 104.1715 0001384  85.3042 228.3675 15.88274241  2766
STARLINK-36387          
1 67610U 26018X   26039.83335647 -.01695979  00000+0 -70299-2 0  9992
2 67610  97.2763 104.1738 0001321  89.5579 230.2383 15.88549134  2764
STARLINK-36636          
1 67611U 26018Y   26039.83335647 -.01690174  00000+0 -69324-2 0  9992
2 67611  97.2761 104.1760 0001389  83.0827 241.2552 15.88747673  2710
STARLINK-36407          
1 67612U 26018Z   26039.83335647 -.01694341  00000+0 -68921-2 0  9995
2 67612  97.2760 104.1777 0001436  80.0469 248.1621 15.88918976  2810
