CCSDS_OMM_VERS = 2.0
CREATION_DATE  = 
ORIGINATOR     = 

OBJECT_NAME    = STARLINK-36635
OBJECT_ID      = 2026-018N
CENTER_NAME    = EARTH
REF_FRAME      = TEME
TIME_SYSTEM    = UTC
MEAN_ELEMENT_THEORY = SGP/SGP4

EPOCH          = 2026-02-08T20:00:01.999008
MEAN_MOTION    = 15.86336851
ECCENTRICITY   = .0001584
INCLINATION    = 97.2788
RA_OF_ASC_NODE = 104.1534
ARG_OF_PERICENTER = 86.0958
MEAN_ANOMALY   = 183.1381

EPHEMERIS_TYPE = 0
CLASSIFICATION_TYPE = U
NORAD_CAT_ID   = 67601
ELEMENT_SET_NO = 999
REV_AT_EPOCH   = 271
BSTAR          = -.79905E-2
MEAN_MOTION_DOT = -.1723331E-1
MEAN_MOTION_DDOT = 0

CCSDS_OMM_VERS = 2.0
CREATION_DATE  = 
ORIGINATOR     = 

OBJECT_NAME    = STARLINK-36631
OBJECT_ID      = 2026-018P
CENTER_NAME    = EARTH
REF_FRAME      = TEME
TIME_SYSTEM    = UTC
MEAN_ELEMENT_THEORY = SGP/SGP4

EPOCH          = 2026-02-08T20:00:01.999008
MEAN_MOTION    = 15.86807040
ECCENTRICITY   = .0001483
INCLINATION    = 97.2783
RA_OF_ASC_NODE = 104.1580
ARG_OF_PERICENTER = 86.2810
MEAN_ANOMALY   = 193.8284

EPHEMERIS_TYPE = 0
CLASSIFICATION_TYPE = U
NORAD_CAT_ID   = 67602
ELEMENT_SET_NO = 999
REV_AT_EPOCH   = 270
BSTAR          = -.77261E-2
MEAN_MOTION_DOT = -.1707604E-1
MEAN_MOTION_DDOT = 0

CCSDS_OMM_VERS = 2.0
CREATION_DATE  = 
ORIGINATOR     = 

OBJECT_NAME    = STARLINK-36626
OBJECT_ID      = 2026-018Q
CENTER_NAME    = EARTH
REF_FRAME      = TEME
TIME_SYSTEM    = UTC
MEAN_ELEMENT_THEORY = SGP/SGP4

EPOCH          = 2026-02-08T20:00:01.999008
MEAN_MOTION    = 15.87422864
ECCENTRICITY   = .000149
INCLINATION    = 97.2776
RA_OF_ASC_NODE = 104.1636
ARG_OF_PERICENTER = 86.9939
MEAN_ANOMALY   = 207.3356

EPHEMERIS_TYPE = 0
CLASSIFICATION_TYPE = U
NORAD_CAT_ID   = 67603
ELEMENT_SET_NO = 999
REV_AT_EPOCH   = 270
BSTAR          = -.74696E-2
MEAN_MOTION_DOT = -.1702719E-1
MEAN_MOTION_DDOT = 0

CCSDS_OMM_VERS = 2.0
CREATION_DATE  = 
ORIGINATOR     = 

OBJECT_NAME    = STARLINK-36605
OBJECT_ID      = 2026-018R
CENTER_NAME    = EARTH
REF_FRAME      = TEME
TIME_SYSTEM    = UTC
MEAN_ELEMENT_THEORY = SGP/SGP4

EPOCH          = 2026-02-08T20:00:01.999008
MEAN_MOTION    = 15.87266626
ECCENTRICITY   = .0001555
INCLINATION    = 97.2775
RA_OF_ASC_NODE = 104.1616
ARG_OF_PERICENTER = 82.1639
MEAN_ANOMALY   = 208.3857

EPHEMERIS_TYPE = 0
CLASSIFICATION_TYPE = U
NORAD_CAT_ID   = 67604
ELEMENT_SET_NO = 999
REV_AT_EPOCH   = 270
BSTAR          = -.75667E-2
MEAN_MOTION_DOT = -.1710416E-1
MEAN_MOTION_DDOT = 0

CCSDS_OMM_VERS = 2.0
CREATION_DATE  = 
ORIGINATOR     = 

OBJECT_NAME    = STARLINK-36281
OBJECT_ID      = 2026-018S
CENTER_NAME    = EARTH
REF_FRAME      = TEME
TIME_SYSTEM    = UTC
MEAN_ELEMENT_THEORY = SGP/SGP4

EPOCH          = 2026-02-08T20:00:01.999008
MEAN_MOTION    = 15.87056823
ECCENTRICITY   = .0001433
INCLINATION    = 97.2777
RA_OF_ASC_NODE = 104.1595
ARG_OF_PERICENTER = 93.1589
MEAN_ANOMALY   = 192.5737

EPHEMERIS_TYPE = 0
CLASSIFICATION_TYPE = U
NORAD_CAT_ID   = 67605
ELEMENT_SET_NO = 999
REV_AT_EPOCH   = 275
BSTAR          = -.76469E-2
MEAN_MOTION_DOT = -.1710535E-1
MEAN_MOTION_DDOT = 0

CCSDS_OMM_VERS = 2.0
CREATION_DATE  = 
ORIGINATOR     = 

OBJECT_NAME    = STARLINK-35843
OBJECT_ID      = 2026-018T
CENTER_NAME    = EARTH
REF_FRAME      = TEME
TIME_SYSTEM    = UTC
MEAN_ELEMENT_THEORY = SGP/SGP4

EPOCH          = 2026-02-08T20:00:01.999008
MEAN_MOTION    = 15.87619762
ECCENTRICITY   = .0001548
INCLINATION    = 97.2771
RA_OF_ASC_NODE = 104.1649
ARG_OF_PERICENTER = 78.7067
MEAN_ANOMALY   = 220.0364

EPHEMERIS_TYPE = 0
CLASSIFICATION_TYPE = U
NORAD_CAT_ID   = 67606
ELEMENT_SET_NO = 999
REV_AT_EPOCH   = 276
BSTAR          = -.74355E-2
MEAN_MOTION_DOT = -.1710459E-1
MEAN_MOTION_DDOT = 0

CCSDS_OMM_VERS = 2.0
CREATION_DATE  = 
ORIGINATOR     = 

OBJECT_NAME    = STARLINK-36351
OBJECT_ID      = 2026-018U
CENTER_NAME    = EARTH
REF_FRAME      = TEME
TIME_SYSTEM    = UTC
MEAN_ELEMENT_THEORY = SGP/SGP4

EPOCH          = 2026-02-08T20:00:01.999008
MEAN_MOTION    = 15.87781737
ECCENTRICITY   = .000152
INCLINATION    = 97.2772
RA_OF_ASC_NODE = 104.1670
ARG_OF_PERICENTER = 87.8634
MEAN_ANOMALY   = 214.7733

EPHEMERIS_TYPE = 0
CLASSIFICATION_TYPE = U
NORAD_CAT_ID   = 67607
ELEMENT_SET_NO = 999
REV_AT_EPOCH   = 276
BSTAR          = -.73188E-2
MEAN_MOTION_DOT = -.1698965E-1
MEAN_MOTION_DDOT = 0

CCSDS_OMM_VERS = 2.0
CREATION_DATE  = 
ORIGINATOR     = 

OBJECT_NAME    = STARLINK-36411
OBJECT_ID      = 2026-018V
CENTER_NAME    = EARTH
REF_FRAME      = TEME
TIME_SYSTEM    = UTC
MEAN_ELEMENT_THEORY = SGP/SGP4

EPOCH          = 2026-02-08T20:00:01.999008
MEAN_MOTION    = 15.88049880
ECCENTRICITY   = .0001433
INCLINATION    = 97.2768
RA_OF_ASC_NODE = 104.1693
ARG_OF_PERICENTER = 86.2569
MEAN_ANOMALY   = 222.2968

EPHEMERIS_TYPE = 0
CLASSIFICATION_TYPE = U
NORAD_CAT_ID   = 67608
ELEMENT_SET_NO = 999
REV_AT_EPOCH   = 275
BSTAR          = -.72398E-2
MEAN_MOTION_DOT = -.1702597E-1
MEAN_MOTION_DDOT = 0

CCSDS_OMM_VERS = 2.0
CREATION_DATE  = 
ORIGINATOR     = 

OBJECT_NAME    = STARLINK-36312
OBJECT_ID      = 2026-018W
CENTER_NAME    = EARTH
REF_FRAME      = TEME
TIME_SYSTEM    = UTC
MEAN_ELEMENT_THEORY = SGP/SGP4

EPOCH          = 2026-02-08T20:00:01.999008
MEAN_MOTION    = 15.88274241
ECCENTRICITY   = .0001384
INCLINATION    = 97.2768
RA_OF_ASC_NODE = 104.1715
ARG_OF_PERICENTER = 85.3042
MEAN_ANOMALY   = 228.3675

EPHEMERIS_TYPE = 0
CLASSIFICATION_TYPE = U
NORAD_CAT_ID   = 67609
ELEMENT_SET_NO = 999
REV_AT_EPOCH   = 276
BSTAR          = -.71429E-2
MEAN_MOTION_DOT = -.1699217E-1
MEAN_MOTION_DDOT = 0

CCSDS_OMM_VERS = 2.0
CREATION_DATE  = 
ORIGINATOR     = 

OBJECT_NAME    = STARLINK-36387
OBJECT_ID      = 2026-018X
CENTER_NAME    = EARTH
REF_FRAME      = TEME
TIME_SYSTEM    = UTC
MEAN_ELEMENT_THEORY = SGP/SGP4

EPOCH          = 2026-02-08T20:00:01.999008
MEAN_MOTION    = 15.88549134
ECCENTRICITY   = .0001321
INCLINATION    = 97.2763
RA_OF_ASC_NODE = 104.1738
ARG_OF_PERICENTER = 89.5579
MEAN_ANOMALY   = 230.2383

EPHEMERIS_TYPE = 0
CLASSIFICATION_TYPE = U
NORAD_CAT_ID   = 67610
ELEMENT_SET_NO = 999
REV_AT_EPOCH   = 276
BSTAR          = -.70299E-2
MEAN_MOTION_DOT = -.1695979E-1
MEAN_MOTION_DDOT = 0

CCSDS_OMM_VERS = 2.0
CREATION_DATE  = 
ORIGINATOR     = 

OBJECT_NAME    = STARLINK-36636
OBJECT_ID      = 2026-018Y
CENTER_NAME    = EARTH
REF_FRAME      = TEME
TIME_SYSTEM    = UTC
MEAN_ELEMENT_THEORY = SGP/SGP4

EPOCH          = 2026-02-08T20:00:01.999008
MEAN_MOTION    = 15.88747673
ECCENTRICITY   = .0001389
INCLINATION    = 97.2761
RA_OF_ASC_NODE = 104.1760
ARG_OF_PERICENTER = 83.0827
MEAN_ANOMALY   = 241.2552

EPHEMERIS_TYPE = 0
CLASSIFICATION_TYPE = U
NORAD_CAT_ID   = 67611
ELEMENT_SET_NO = 999
REV_AT_EPOCH   = 271
BSTAR          = -.69324E-2
MEAN_MOTION_DOT = -.1690174E-1
MEAN_MOTION_DDOT = 0

CCSDS_OMM_VERS = 2.0
CREATION_DATE  = 
ORIGINATOR     = 

OBJECT_NAME    = STARLINK-36407
OBJECT_ID      = 2026-018Z
CENTER_NAME    = EARTH
REF_FRAME      = TEME
TIME_SYSTEM    = UTC
MEAN_ELEMENT_THEORY = SGP/SGP4

EPOCH          = 2026-02-08T20:00:01.999008
MEAN_MOTION    = 15.88918976
ECCENTRICITY   = .0001436
INCLINATION    = 97.2760
RA_OF_ASC_NODE = 104.1777
ARG_OF_PERICENTER = 80.0469
MEAN_ANOMALY   = 248.1621

EPHEMERIS_TYPE = 0
CLASSIFICATION_TYPE = U
NORAD_CAT_ID   = 67612
ELEMENT_SET_NO = 999
REV_AT_EPOCH   = 281
BSTAR          = -.68921E-2
MEAN_MOTION_DOT = -.1694341E-1
MEAN_MOTION_DDOT = 0

